{
  "type": "FeatureCollection",
  "features": [
    {
      "type": "Feature",
      "properties": {
        "norad_id": 46277,
        "name": "NEMO-HD",
        "group": "resource",
        "lat": -45.705564798879585,
        "lon": -134.51373819609282,
        "alt_km": 452.527885026474,
        "timestamp": "2025-12-19T22:41:52.036906+00:00",
        "meta_object_name": "NEMO-HD",
        "meta_object_id": "2020-061F",
        "meta_epoch": "2025-12-19T18:36:04.858272",
        "meta_mean_motion": 15.40465008,
        "meta_eccentricity": 0.0001428,
        "meta_inclination": 97.2205,
        "meta_ra_of_asc_node": 52.7841,
        "meta_arg_of_pericenter": 52.1915,
        "meta_mean_anomaly": 307.9461,
        "meta_ephemeris_type": 0,
        "meta_classification_type": "U",
        "meta_norad_cat_id": 46277,
        "meta_element_set_no": 999,
        "meta_rev_at_epoch": 29432,
        "meta_bstar": 0.00018939,
        "meta_mean_motion_dot": 7.59e-05,
        "meta_mean_motion_ddot": 0,
        "tle_line1": "1 46277U 20061F   25353.77505623  .00007590  00000+0  18939-3 0  9991",
        "tle_line2": "2 46277  97.2205  52.7841 0001428  52.1915 307.9461 15.40465008294321"
      },
      "geometry": {
        "type": "Point",
        "coordinates": [
          -134.51373819609282,
          -45.705564798879585
        ]
      }
    },
    {
      "type": "Feature",
      "properties": {
        "norad_id": 46984,
        "name": "SENTINEL-6A",
        "group": "resource",
        "lat": -22.980702615505965,
        "lon": -21.78990174221062,
        "alt_km": 1339.51317005098,
        "timestamp": "2025-12-19T22:41:52.036916+00:00",
        "meta_object_name": "SENTINEL-6A",
        "meta_object_id": "2020-086A",
        "meta_epoch": "2025-12-19T17:52:54.206112",
        "meta_mean_motion": 12.80930818,
        "meta_eccentricity": 0.0007715,
        "meta_inclination": 66.0393,
        "meta_ra_of_asc_node": 147.7576,
        "meta_arg_of_pericenter": 269.2966,
        "meta_mean_anomaly": 90.7165,
        "meta_ephemeris_type": 0,
        "meta_classification_type": "U",
        "meta_norad_cat_id": 46984,
        "meta_element_set_no": 999,
        "meta_rev_at_epoch": 23734,
        "meta_bstar": -3.1411e-05,
        "meta_mean_motion_dot": -6.8e-07,
        "meta_mean_motion_ddot": 0,
        "tle_line1": "1 46984U 20086A   25353.74507183 -.00000068  00000+0 -31411-4 0  9999",
        "tle_line2": "2 46984  66.0393 147.7576 0007715 269.2966  90.7165 12.80930818237344"
      },
      "geometry": {
        "type": "Point",
        "coordinates": [
          -21.78990174221062,
          -22.980702615505965
        ]
      }
    },
    {
      "type": "Feature",
      "properties": {
        "norad_id": 48079,
        "name": "GAOFEN-12 02",
        "group": "resource",
        "lat": -40.71761510635429,
        "lon": 160.97831037056804,
        "alt_km": 635.5028313127468,
        "timestamp": "2025-12-19T22:41:52.036926+00:00",
        "meta_object_name": "GAOFEN-12 02",
        "meta_object_id": "2021-026A",
        "meta_epoch": "2025-12-19T18:27:31.737312",
        "meta_mean_motion": 14.80682973,
        "meta_eccentricity": 0.0003596,
        "meta_inclination": 97.9853,
        "meta_ra_of_asc_node": 347.7417,
        "meta_arg_of_pericenter": 87.1085,
        "meta_mean_anomaly": 273.0538,
        "meta_ephemeris_type": 0,
        "meta_classification_type": "U",
        "meta_norad_cat_id": 48079,
        "meta_element_set_no": 999,
        "meta_rev_at_epoch": 25521,
        "meta_bstar": 5.2586e-05,
        "meta_mean_motion_dot": 3.51e-06,
        "meta_mean_motion_ddot": 0,
        "tle_line1": "1 48079U 21026A   25353.76911733  .00000351  00000+0  52586-4 0  9992",
        "tle_line2": "2 48079  97.9853 347.7417 0003596  87.1085 273.0538 14.80682973255217"
      },
      "geometry": {
        "type": "Point",
        "coordinates": [
          160.97831037056804,
          -40.71761510635429
        ]
      }
    },
    {
      "type": "Feature",
      "properties": {
        "norad_id": 48268,
        "name": "PLEIADES NEO 3",
        "group": "resource",
        "lat": -45.81654660025098,
        "lon": 74.49247143263773,
        "alt_km": 631.4624235799829,
        "timestamp": "2025-12-19T22:41:52.036935+00:00",
        "meta_object_name": "PLEIADES NEO 3",
        "meta_object_id": "2021-034A",
        "meta_epoch": "2025-12-19T18:02:39.984288",
        "meta_mean_motion": 14.81672914,
        "meta_eccentricity": 0.0001328,
        "meta_inclination": 97.8951,
        "meta_ra_of_asc_node": 66.0926,
        "meta_arg_of_pericenter": 87.7103,
        "meta_mean_anomaly": 272.4262,
        "meta_ephemeris_type": 0,
        "meta_classification_type": "U",
        "meta_norad_cat_id": 48268,
        "meta_element_set_no": 999,
        "meta_rev_at_epoch": 25108,
        "meta_bstar": 0.00011078,
        "meta_mean_motion_dot": 8.2e-06,
        "meta_mean_motion_ddot": 0,
        "tle_line1": "1 48268U 21034A   25353.75185167  .00000820  00000+0  11078-3 0  9995",
        "tle_line2": "2 48268  97.8951  66.0926 0001328  87.7103 272.4262 14.81672914251082"
      },
      "geometry": {
        "type": "Point",
        "coordinates": [
          74.49247143263773,
          -45.81654660025098
        ]
      }
    },
    {
      "type": "Feature",
      "properties": {
        "norad_id": 49070,
        "name": "PLEIADES NEO 4",
        "group": "resource",
        "lat": 45.56220797295281,
        "lon": -105.58440644765174,
        "alt_km": 619.4476501802674,
        "timestamp": "2025-12-19T22:41:52.036945+00:00",
        "meta_object_name": "PLEIADES NEO 4",
        "meta_object_id": "2021-073E",
        "meta_epoch": "2025-12-19T17:14:01.451904",
        "meta_mean_motion": 14.81673921,
        "meta_eccentricity": 0.0001322,
        "meta_inclination": 97.8951,
        "meta_ra_of_asc_node": 66.0555,
        "meta_arg_of_pericenter": 91.7224,
        "meta_mean_anomaly": 268.414,
        "meta_ephemeris_type": 0,
        "meta_classification_type": "U",
        "meta_norad_cat_id": 49070,
        "meta_element_set_no": 999,
        "meta_rev_at_epoch": 23479,
        "meta_bstar": 9.4219e-06,
        "meta_mean_motion_dot": 2.2e-07,
        "meta_mean_motion_ddot": 0,
        "tle_line1": "1 49070U 21073E   25353.71807236  .00000022  00000+0  94219-5 0  9998",
        "tle_line2": "2 49070  97.8951  66.0555 0001322  91.7224 268.4140 14.81673921234793"
      },
      "geometry": {
        "type": "Point",
        "coordinates": [
          -105.58440644765174,
          45.56220797295281
        ]
      }
    },
    {
      "type": "Feature",
      "properties": {
        "norad_id": 49260,
        "name": "LANDSAT 9",
        "group": "resource",
        "lat": -53.41129724547191,
        "lon": -129.2606044582589,
        "alt_km": 710.1645214421405,
        "timestamp": "2025-12-19T22:41:52.036956+00:00",
        "meta_object_name": "LANDSAT 9",
        "meta_object_id": "2021-088A",
        "meta_epoch": "2025-12-19T15:02:03.183936",
        "meta_mean_motion": 14.57104632,
        "meta_eccentricity": 0.0001115,
        "meta_inclination": 98.2087,
        "meta_ra_of_asc_node": 61.6374,
        "meta_arg_of_pericenter": 91.1885,
        "meta_mean_anomaly": 268.9441,
        "meta_ephemeris_type": 0,
        "meta_classification_type": "U",
        "meta_norad_cat_id": 49260,
        "meta_element_set_no": 999,
        "meta_rev_at_epoch": 22485,
        "meta_bstar": 8.05e-05,
        "meta_mean_motion_dot": 3.17e-06,
        "meta_mean_motion_ddot": 0,
        "tle_line1": "1 49260U 21088A   25353.62642574  .00000317  00000+0  80500-4 0  9991",
        "tle_line2": "2 49260  98.2087  61.6374 0001115  91.1885 268.9441 14.57104632224852"
      },
      "geometry": {
        "type": "Point",
        "coordinates": [
          -129.2606044582589,
          -53.41129724547191
        ]
      }
    },
    {
      "type": "Feature",
      "properties": {
        "norad_id": 51444,
        "name": "CSG-2",
        "group": "resource",
        "lat": 0.9905763728911209,
        "lon": -4.702981688396962,
        "alt_km": 625.5217080754428,
        "timestamp": "2025-12-19T22:41:52.036966+00:00",
        "meta_object_name": "CSG-2",
        "meta_object_id": "2022-008A",
        "meta_epoch": "2025-12-19T18:39:10.365120",
        "meta_mean_motion": 14.82149163,
        "meta_eccentricity": 0.0001439,
        "meta_inclination": 97.8798,
        "meta_ra_of_asc_node": 174.9939,
        "meta_arg_of_pericenter": 84.9522,
        "meta_mean_anomaly": 275.1855,
        "meta_ephemeris_type": 0,
        "meta_classification_type": "U",
        "meta_norad_cat_id": 51444,
        "meta_element_set_no": 999,
        "meta_rev_at_epoch": 21001,
        "meta_bstar": -2.9851e-06,
        "meta_mean_motion_dot": -7.6e-07,
        "meta_mean_motion_ddot": 0,
        "tle_line1": "1 51444U 22008A   25353.77720330 -.00000076  00000+0 -29851-5 0  9991",
        "tle_line2": "2 51444  97.8798 174.9939 0001439  84.9522 275.1855 14.82149163210013"
      },
      "geometry": {
        "type": "Point",
        "coordinates": [
          -4.702981688396962,
          0.9905763728911209
        ]
      }
    }
  ]
}